{
    "links": {
        "self": "http://www.neowsapp.com/rest/v1/neo/3653648?api_key=iIulBulltgU6a56xZRHN4H3l9WmuAYTsLGpBGhQ2"
    },
    "id": "3653648",
    "neo_reference_id": "3653648",
    "name": "(2013 VP11)",
    "designation": "2013 VP11",
    "nasa_jpl_url": "http://ssd.jpl.nasa.gov/sbdb.cgi?sstr=3653648",
    "absolute_magnitude_h": 25.6,
    "estimated_diameter": {
        "kilometers": {
            "estimated_diameter_min": 0.0201629919,
            "estimated_diameter_max": 0.0450858206
        },
        "meters": {
            "estimated_diameter_min": 20.1629919443,
            "estimated_diameter_max": 45.0858206172
        },
        "miles": {
            "estimated_diameter_min": 0.0125286985,
            "estimated_diameter_max": 0.0280150214
        },
        "feet": {
            "estimated_diameter_min": 66.1515504905,
            "estimated_diameter_max": 147.9193637137
        }
    },
    "is_potentially_hazardous_asteroid": false,
    "close_approach_data": [
        {
            "close_approach_date": "2013-11-05",
            "close_approach_date_full": "2013-Nov-05 19:10",
            "epoch_date_close_approach": 1383678600000,
            "relative_velocity": {
                "kilometers_per_second": "16.4523562155",
                "kilometers_per_hour": "59228.4823757885",
                "miles_per_hour": "36802.2756184448"
            },
            "miss_distance": {
                "astronomical": "0.015653875",
                "lunar": "6.089357375",
                "kilometers": "2341786.35724625",
                "miles": "1455118.56764825"
            },
            "orbiting_body": "Earth"
        },
        {
            "close_approach_date": "2099-06-12",
            "close_approach_date_full": "2099-Jun-12 16:07",
            "epoch_date_close_approach": 4084963620000,
            "relative_velocity": {
                "kilometers_per_second": "22.7094813788",
                "kilometers_per_hour": "81754.1329636382",
                "miles_per_hour": "50798.8388962118"
            },
            "miss_distance": {
                "astronomical": "0.2084992981",
                "lunar": "81.1062269609",
                "kilometers": "31191050.892255047",
                "miles": "19381220.3053197686"
            },
            "orbiting_body": "Earth"
        },
        {
            "close_approach_date": "2123-06-25",
            "close_approach_date_full": "2123-Jun-25 18:45",
            "epoch_date_close_approach": 4843392300000,
            "relative_velocity": {
                "kilometers_per_second": "17.300644046",
                "kilometers_per_hour": "62282.3185657505",
                "miles_per_hour": "38699.8106665909"
            },
            "miss_distance": {
                "astronomical": "0.0417614682",
                "lunar": "16.2452111298",
                "kilometers": "6247426.690792734",
                "miles": "3881970.9362743692"
            },
            "orbiting_body": "Earth"
        }
    ],
    "orbital_data": {
        "orbit_id": "6",
        "orbit_determination_date": "2017-04-06 08:43:45",
        "first_observation_date": "2013-11-08",
        "last_observation_date": "2013-11-14",
        "data_arc_in_days": 6,
        "observations_used": 43,
        "orbit_uncertainty": "8",
        "minimum_orbit_intersection": ".0156552",
        "jupiter_tisserand_invariant": "3.278",
        "epoch_osculation": "2456606.5",
        "eccentricity": ".6592156378579889",
        "semi_major_axis": "2.277941304903742",
        "inclination": "3.086288902512991",
        "ascending_node_longitude": "60.32485191141924",
        "orbital_period": "1255.776122825744",
        "perihelion_distance": ".7762867745885621",
        "perihelion_argument": "279.8144508391002",
        "aphelion_distance": "3.779595835218921",
        "perihelion_time": "2456561.781014339560",
        "mean_anomaly": "12.81982874585388",
        "mean_motion": ".286675302592893",
        "equinox": "J2000",
        "orbit_class": {
            "orbit_class_type": "APO",
            "orbit_class_description": "Near-Earth asteroid orbits which cross the Earth’s orbit similar to that of 1862 Apollo",
            "orbit_class_range": "a (semi-major axis) > 1.0 AU; q (perihelion) < 1.017 AU"
        }
    },
    "is_sentry_object": false
}